ORBCOMM FM05            
1 25117U 97084F   24276.07731639  .00006956  00000+0  20620-2 0  9998
2 25117  45.0140 165.6418 0002665  16.8861 343.2078 14.43842560403272
ORBCOMM FM06            
1 25118U 97084G   24276.12577708  .00006739  00000+0  19943-2 0  9995
2 25118  45.0134 165.4716 0001961  32.8764 118.3049 14.43963609404192
ORBCOMM FM07            
1 25119U 97084H   24276.37457432  .00009211  00000+0  27151-2 0  9992
2 25119  45.0129 164.9208 0003225   7.4222 352.6676 14.43860373404226
ORBCOMM FM03            
1 25158U 98007B   24276.41768598  .00005392  00000+0  19885-2 0  9995
2 25158 107.9710 326.5535 0046932 336.7156  23.1858 14.32990611387092
ORBCOMM FM04            
1 25159U 98007C   24276.37914654  .00006034  00000+0  22122-2 0  9999
2 25159 107.9692 329.5140 0042608 334.0529  25.8474 14.33262967387267
ORBCOMM FM17            
1 25413U 98046A   24276.38755388  .00006907  00000+0  25074-2 0  9991
2 25413  44.9953  33.2991 0001447 304.1973  55.8736 14.33838439366152
ORBCOMM FM18            
1 25414U 98046B   24276.37064739  .00007838  00000+0  26729-2 0  9996
2 25414  44.9934 317.2790 0002397  30.9925 329.1063 14.36841802367141
ORBCOMM FM19            
1 25415U 98046C   24276.44023038  .00007091  00000+0  24311-2 0  9998
2 25415  44.9945 318.5596 0001865 358.5594  89.7662 14.36672741367117
