<?xml version="1.0" encoding="UTF-8"?>
<ndm xmlns:xsi="http://www.w3.org/2001/XMLSchema-instance" xsi:noNamespaceSchemaLocation="https://sanaregistry.org/r/ndmxml_unqualified/ndmxml-2.0.0-master-2.0.xsd">
<omm id="CCSDS_OMM_VERS" version="2.0">
<header><CREATION_DATE/><ORIGINATOR/></header><body><segment><metadata><OBJECT_NAME>ORBCOMM FM05</OBJECT_NAME><OBJECT_ID>1997-084F</OBJECT_ID><CENTER_NAME>EARTH</CENTER_NAME><REF_FRAME>TEME</REF_FRAME><TIME_SYSTEM>UTC</TIME_SYSTEM><MEAN_ELEMENT_THEORY>SGP4</MEAN_ELEMENT_THEORY></metadata><data><meanElements><EPOCH>2024-10-02T01:51:20.136096</EPOCH><MEAN_MOTION>14.43842560</MEAN_MOTION><ECCENTRICITY>.0002665</ECCENTRICITY><INCLINATION>45.0140</INCLINATION><RA_OF_ASC_NODE>165.6418</RA_OF_ASC_NODE><ARG_OF_PERICENTER>16.8861</ARG_OF_PERICENTER><MEAN_ANOMALY>343.2078</MEAN_ANOMALY></meanElements><tleParameters><EPHEMERIS_TYPE>0</EPHEMERIS_TYPE><CLASSIFICATION_TYPE>U</CLASSIFICATION_TYPE><NORAD_CAT_ID>25117</NORAD_CAT_ID><ELEMENT_SET_NO>999</ELEMENT_SET_NO><REV_AT_EPOCH>40327</REV_AT_EPOCH><BSTAR>.2062E-2</BSTAR><MEAN_MOTION_DOT>.6956E-4</MEAN_MOTION_DOT><MEAN_MOTION_DDOT>0</MEAN_MOTION_DDOT></tleParameters></data></segment></body></omm>
<omm id="CCSDS_OMM_VERS" version="2.0">
<header><CREATION_DATE/><ORIGINATOR/></header><body><segment><metadata><OBJECT_NAME>ORBCOMM FM06</OBJECT_NAME><OBJECT_ID>1997-084G</OBJECT_ID><CENTER_NAME>EARTH</CENTER_NAME><REF_FRAME>TEME</REF_FRAME><TIME_SYSTEM>UTC</TIME_SYSTEM><MEAN_ELEMENT_THEORY>SGP4</MEAN_ELEMENT_THEORY></metadata><data><meanElements><EPOCH>2024-10-02T03:01:07.139712</EPOCH><MEAN_MOTION>14.43963609</MEAN_MOTION><ECCENTRICITY>.0001961</ECCENTRICITY><INCLINATION>45.0134</INCLINATION><RA_OF_ASC_NODE>165.4716</RA_OF_ASC_NODE><ARG_OF_PERICENTER>32.8764</ARG_OF_PERICENTER><MEAN_ANOMALY>118.3049</MEAN_ANOMALY></meanElements><tleParameters><EPHEMERIS_TYPE>0</EPHEMERIS_TYPE><CLASSIFICATION_TYPE>U</CLASSIFICATION_TYPE><NORAD_CAT_ID>25118</NORAD_CAT_ID><ELEMENT_SET_NO>999</ELEMENT_SET_NO><REV_AT_EPOCH>40419</REV_AT_EPOCH><BSTAR>.19943E-2</BSTAR><MEAN_MOTION_DOT>.6739E-4</MEAN_MOTION_DOT><MEAN_MOTION_DDOT>0</MEAN_MOTION_DDOT></tleParameters></data></segment></body></omm>
<omm id="CCSDS_OMM_VERS" version="2.0">
<header><CREATION_DATE/><ORIGINATOR/></header><body><segment><metadata><OBJECT_NAME>ORBCOMM FM07</OBJECT_NAME><OBJECT_ID>1997-084H</OBJECT_ID><CENTER_NAME>EARTH</CENTER_NAME><REF_FRAME>TEME</REF_FRAME><TIME_SYSTEM>UTC</TIME_SYSTEM><MEAN_ELEMENT_THEORY>SGP4</MEAN_ELEMENT_THEORY></metadata><data><meanElements><EPOCH>2024-10-02T08:59:23.221248</EPOCH><MEAN_MOTION>14.43860373</MEAN_MOTION><ECCENTRICITY>.0003225</ECCENTRICITY><INCLINATION>45.0129</INCLINATION><RA_OF_ASC_NODE>164.9208</RA_OF_ASC_NODE><ARG_OF_PERICENTER>7.4222</ARG_OF_PERICENTER><MEAN_ANOMALY>352.6676</MEAN_ANOMALY></meanElements><tleParameters><EPHEMERIS_TYPE>0</EPHEMERIS_TYPE><CLASSIFICATION_TYPE>U</CLASSIFICATION_TYPE><NORAD_CAT_ID>25119</NORAD_CAT_ID><ELEMENT_SET_NO>999</ELEMENT_SET_NO><REV_AT_EPOCH>40422</REV_AT_EPOCH><BSTAR>.27151E-2</BSTAR><MEAN_MOTION_DOT>.9211E-4</MEAN_MOTION_DOT><MEAN_MOTION_DDOT>0</MEAN_MOTION_DDOT></tleParameters></data></segment></body></omm>
<omm id="CCSDS_OMM_VERS" version="2.0">
<header><CREATION_DATE/><ORIGINATOR/></header><body><segment><metadata><OBJECT_NAME>ORBCOMM FM03</OBJECT_NAME><OBJECT_ID>1998-007B</OBJECT_ID><CENTER_NAME>EARTH</CENTER_NAME><REF_FRAME>TEME</REF_FRAME><TIME_SYSTEM>UTC</TIME_SYSTEM><MEAN_ELEMENT_THEORY>SGP4</MEAN_ELEMENT_THEORY></metadata><data><meanElements><EPOCH>2024-10-02T10:01:28.068672</EPOCH><MEAN_MOTION>14.32990611</MEAN_MOTION><ECCENTRICITY>.0046932</ECCENTRICITY><INCLINATION>107.9710</INCLINATION><RA_OF_ASC_NODE>326.5535</RA_OF_ASC_NODE><ARG_OF_PERICENTER>336.7156</ARG_OF_PERICENTER><MEAN_ANOMALY>23.1858</MEAN_ANOMALY></meanElements><tleParameters><EPHEMERIS_TYPE>0</EPHEMERIS_TYPE><CLASSIFICATION_TYPE>U</CLASSIFICATION_TYPE><NORAD_CAT_ID>25158</NORAD_CAT_ID><ELEMENT_SET_NO>999</ELEMENT_SET_NO><REV_AT_EPOCH>38709</REV_AT_EPOCH><BSTAR>.19885E-2</BSTAR><MEAN_MOTION_DOT>.5392E-4</MEAN_MOTION_DOT><MEAN_MOTION_DDOT>0</MEAN_MOTION_DDOT></tleParameters></data></segment></body></omm>
<omm id="CCSDS_OMM_VERS" version="2.0">
<header><CREATION_DATE/><ORIGINATOR/></header><body><segment><metadata><OBJECT_NAME>ORBCOMM FM04</OBJECT_NAME><OBJECT_ID>1998-007C</OBJECT_ID><CENTER_NAME>EARTH</CENTER_NAME><REF_FRAME>TEME</REF_FRAME><TIME_SYSTEM>UTC</TIME_SYSTEM><MEAN_ELEMENT_THEORY>SGP4</MEAN_ELEMENT_THEORY></metadata><data><meanElements><EPOCH>2024-10-02T09:05:58.261056</EPOCH><MEAN_MOTION>14.33262967</MEAN_MOTION><ECCENTRICITY>.0042608</ECCENTRICITY><INCLINATION>107.9692</INCLINATION><RA_OF_ASC_NODE>329.5140</RA_OF_ASC_NODE><ARG_OF_PERICENTER>334.0529</ARG_OF_PERICENTER><MEAN_ANOMALY>25.8474</MEAN_ANOMALY></meanElements><tleParameters><EPHEMERIS_TYPE>0</EPHEMERIS_TYPE><CLASSIFICATION_TYPE>U</CLASSIFICATION_TYPE><NORAD_CAT_ID>25159</NORAD_CAT_ID><ELEMENT_SET_NO>999</ELEMENT_SET_NO><REV_AT_EPOCH>38726</REV_AT_EPOCH><BSTAR>.22122E-2</BSTAR><MEAN_MOTION_DOT>.6034E-4</MEAN_MOTION_DOT><MEAN_MOTION_DDOT>0</MEAN_MOTION_DDOT></tleParameters></data></segment></body></omm>
<omm id="CCSDS_OMM_VERS" version="2.0">
<header><CREATION_DATE/><ORIGINATOR/></header><body><segment><metadata><OBJECT_NAME>ORBCOMM FM17</OBJECT_NAME><OBJECT_ID>1998-046A</OBJECT_ID><CENTER_NAME>EARTH</CENTER_NAME><REF_FRAME>TEME</REF_FRAME><TIME_SYSTEM>UTC</TIME_SYSTEM><MEAN_ELEMENT_THEORY>SGP4</MEAN_ELEMENT_THEORY></metadata><data><meanElements><EPOCH>2024-10-02T09:18:04.655232</EPOCH><MEAN_MOTION>14.33838439</MEAN_MOTION><ECCENTRICITY>.0001447</ECCENTRICITY><INCLINATION>44.9953</INCLINATION><RA_OF_ASC_NODE>33.2991</RA_OF_ASC_NODE><ARG_OF_PERICENTER>304.1973</ARG_OF_PERICENTER><MEAN_ANOMALY>55.8736</MEAN_ANOMALY></meanElements><tleParameters><EPHEMERIS_TYPE>0</EPHEMERIS_TYPE><CLASSIFICATION_TYPE>U</CLASSIFICATION_TYPE><NORAD_CAT_ID>25413</NORAD_CAT_ID><ELEMENT_SET_NO>999</ELEMENT_SET_NO><REV_AT_EPOCH>36615</REV_AT_EPOCH><BSTAR>.25074E-2</BSTAR><MEAN_MOTION_DOT>.6907E-4</MEAN_MOTION_DOT><MEAN_MOTION_DDOT>0</MEAN_MOTION_DDOT></tleParameters></data></segment></body></omm>
<omm id="CCSDS_OMM_VERS" version="2.0">
<header><CREATION_DATE/><ORIGINATOR/></header><body><segment><metadata><OBJECT_NAME>ORBCOMM FM18</OBJECT_NAME><OBJECT_ID>1998-046B</OBJECT_ID><CENTER_NAME>EARTH</CENTER_NAME><REF_FRAME>TEME</REF_FRAME><TIME_SYSTEM>UTC</TIME_SYSTEM><MEAN_ELEMENT_THEORY>SGP4</MEAN_ELEMENT_THEORY></metadata><data><meanElements><EPOCH>2024-10-02T08:53:43.934496</EPOCH><MEAN_MOTION>14.36841802</MEAN_MOTION><ECCENTRICITY>.0002397</ECCENTRICITY><INCLINATION>44.9934</INCLINATION><RA_OF_ASC_NODE>317.2790</RA_OF_ASC_NODE><ARG_OF_PERICENTER>30.9925</ARG_OF_PERICENTER><MEAN_ANOMALY>329.1063</MEAN_ANOMALY></meanElements><tleParameters><EPHEMERIS_TYPE>0</EPHEMERIS_TYPE><CLASSIFICATION_TYPE>U</CLASSIFICATION_TYPE><NORAD_CAT_ID>25414</NORAD_CAT_ID><ELEMENT_SET_NO>999</ELEMENT_SET_NO><REV_AT_EPOCH>36714</REV_AT_EPOCH><BSTAR>.26729E-2</BSTAR><MEAN_MOTION_DOT>.7838E-4</MEAN_MOTION_DOT><MEAN_MOTION_DDOT>0</MEAN_MOTION_DDOT></tleParameters></data></segment></body></omm>
<omm id="CCSDS_OMM_VERS" version="2.0">
<header><CREATION_DATE/><ORIGINATOR/></header><body><segment><metadata><OBJECT_NAME>ORBCOMM FM19</OBJECT_NAME><OBJECT_ID>1998-046C</OBJECT_ID><CENTER_NAME>EARTH</CENTER_NAME><REF_FRAME>TEME</REF_FRAME><TIME_SYSTEM>UTC</TIME_SYSTEM><MEAN_ELEMENT_THEORY>SGP4</MEAN_ELEMENT_THEORY></metadata><data><meanElements><EPOCH>2024-10-02T10:33:55.904832</EPOCH><MEAN_MOTION>14.36672741</MEAN_MOTION><ECCENTRICITY>.0001865</ECCENTRICITY><INCLINATION>44.9945</INCLINATION><RA_OF_ASC_NODE>318.5596</RA_OF_ASC_NODE><ARG_OF_PERICENTER>358.5594</ARG_OF_PERICENTER><MEAN_ANOMALY>89.7662</MEAN_ANOMALY></meanElements><tleParameters><EPHEMERIS_TYPE>0</EPHEMERIS_TYPE><CLASSIFICATION_TYPE>U</CLASSIFICATION_TYPE><NORAD_CAT_ID>25415</NORAD_CAT_ID><ELEMENT_SET_NO>999</ELEMENT_SET_NO><REV_AT_EPOCH>36711</REV_AT_EPOCH><BSTAR>.24311E-2</BSTAR><MEAN_MOTION_DOT>.7091E-4</MEAN_MOTION_DOT><MEAN_MOTION_DDOT>0</MEAN_MOTION_DDOT></tleParameters></data></segment></body></omm>

</ndm>
